KUIPER-00044            
1 64505U 25134F   25267.22158330  .00007008  00000+0  94544-3 0  9994
2 64505  51.8971 262.7166 0014433  81.5501 278.7097 14.79968781 15239
KUIPER-00046            
1 64506U 25134G   25267.28289385  .00007459  00000+0  10059-2 0  9994
2 64506  51.8973 258.8108 0012767  93.4187 266.8236 14.79911253 15295
KUIPER-00047            
1 64507U 25134H   25267.31294360  .00028084  00000+0  79669-3 0  9998
2 64507  51.8617 243.6984 0012393  97.4180 262.8215 15.35938398 15506
KUIPER-00048            
1 64508U 25134J   25267.18477312  .00065748  00000+0  17068-2 0  9996
2 64508  51.8762 243.0003 0006126  80.8863 279.2818 15.38345738 15509
KUIPER-00049            
1 64509U 25134K   25267.33336806 -.01811462  00000+0 -14078+0 0  9996
2 64509  51.8841 246.1639 0006844  63.7729 338.1981 15.04446628  2881
KUIPER-00050            
1 64510U 25134L   25267.33336806 -.01666310  00000+0 -13417+0 0  9994
2 64510  51.8857 247.2714 0006654 101.9675 115.8945 15.02840099  4554
KUIPER-00051            
1 64511U 25134M   25267.33336806 -.02054155  00000+0 -12538+0 0  9997
2 64511  51.8882 245.1280 0005583  66.7844  49.7725 15.13673789  4535
KUIPER-00052            
1 64512U 25134N   25267.10550288  .00261313  00000+0  33027-2 0  9996
2 64512  51.8732 235.8348 0007519 101.2612 258.9229 15.58092836 15598
