<?xml version="1.0" encoding="UTF-8"?>
<ndm xmlns:xsi="http://www.w3.org/2001/XMLSchema-instance" xsi:noNamespaceSchemaLocation="https://sanaregistry.org/r/ndmxml_unqualified/ndmxml-2.0.0-master-2.0.xsd">
<omm id="CCSDS_OMM_VERS" version="2.0">
<header><CREATION_DATE/><ORIGINATOR/></header><body><segment><metadata><OBJECT_NAME>KUIPER-00044</OBJECT_NAME><OBJECT_ID>2025-134F</OBJECT_ID><CENTER_NAME>EARTH</CENTER_NAME><REF_FRAME>TEME</REF_FRAME><TIME_SYSTEM>UTC</TIME_SYSTEM><MEAN_ELEMENT_THEORY>SGP4</MEAN_ELEMENT_THEORY></metadata><data><meanElements><EPOCH>2025-09-24T05:19:04.797120</EPOCH><MEAN_MOTION>14.79968781</MEAN_MOTION><ECCENTRICITY>.00144339</ECCENTRICITY><INCLINATION>51.8971</INCLINATION><RA_OF_ASC_NODE>262.7166</RA_OF_ASC_NODE><ARG_OF_PERICENTER>81.5501</ARG_OF_PERICENTER><MEAN_ANOMALY>278.7097</MEAN_ANOMALY></meanElements><tleParameters><EPHEMERIS_TYPE>0</EPHEMERIS_TYPE><CLASSIFICATION_TYPE>U</CLASSIFICATION_TYPE><NORAD_CAT_ID>64505</NORAD_CAT_ID><ELEMENT_SET_NO>999</ELEMENT_SET_NO><REV_AT_EPOCH>1523</REV_AT_EPOCH><BSTAR>.94543977E-3</BSTAR><MEAN_MOTION_DOT>.7008E-4</MEAN_MOTION_DOT><MEAN_MOTION_DDOT>0</MEAN_MOTION_DDOT></tleParameters></data></segment></body></omm>
<omm id="CCSDS_OMM_VERS" version="2.0">
<header><CREATION_DATE/><ORIGINATOR/></header><body><segment><metadata><OBJECT_NAME>KUIPER-00046</OBJECT_NAME><OBJECT_ID>2025-134G</OBJECT_ID><CENTER_NAME>EARTH</CENTER_NAME><REF_FRAME>TEME</REF_FRAME><TIME_SYSTEM>UTC</TIME_SYSTEM><MEAN_ELEMENT_THEORY>SGP4</MEAN_ELEMENT_THEORY></metadata><data><meanElements><EPOCH>2025-09-24T06:47:22.028640</EPOCH><MEAN_MOTION>14.79911253</MEAN_MOTION><ECCENTRICITY>.00127674</ECCENTRICITY><INCLINATION>51.8973</INCLINATION><RA_OF_ASC_NODE>258.8108</RA_OF_ASC_NODE><ARG_OF_PERICENTER>93.4187</ARG_OF_PERICENTER><MEAN_ANOMALY>266.8236</MEAN_ANOMALY></meanElements><tleParameters><EPHEMERIS_TYPE>0</EPHEMERIS_TYPE><CLASSIFICATION_TYPE>U</CLASSIFICATION_TYPE><NORAD_CAT_ID>64506</NORAD_CAT_ID><ELEMENT_SET_NO>999</ELEMENT_SET_NO><REV_AT_EPOCH>1529</REV_AT_EPOCH><BSTAR>.1005935E-2</BSTAR><MEAN_MOTION_DOT>.7459E-4</MEAN_MOTION_DOT><MEAN_MOTION_DDOT>0</MEAN_MOTION_DDOT></tleParameters></data></segment></body></omm>
<omm id="CCSDS_OMM_VERS" version="2.0">
<header><CREATION_DATE/><ORIGINATOR/></header><body><segment><metadata><OBJECT_NAME>KUIPER-00047</OBJECT_NAME><OBJECT_ID>2025-134H</OBJECT_ID><CENTER_NAME>EARTH</CENTER_NAME><REF_FRAME>TEME</REF_FRAME><TIME_SYSTEM>UTC</TIME_SYSTEM><MEAN_ELEMENT_THEORY>SGP4</MEAN_ELEMENT_THEORY></metadata><data><meanElements><EPOCH>2025-09-24T07:30:38.327040</EPOCH><MEAN_MOTION>15.35938398</MEAN_MOTION><ECCENTRICITY>.00123937</ECCENTRICITY><INCLINATION>51.8617</INCLINATION><RA_OF_ASC_NODE>243.6984</RA_OF_ASC_NODE><ARG_OF_PERICENTER>97.4180</ARG_OF_PERICENTER><MEAN_ANOMALY>262.8215</MEAN_ANOMALY></meanElements><tleParameters><EPHEMERIS_TYPE>0</EPHEMERIS_TYPE><CLASSIFICATION_TYPE>U</CLASSIFICATION_TYPE><NORAD_CAT_ID>64507</NORAD_CAT_ID><ELEMENT_SET_NO>999</ELEMENT_SET_NO><REV_AT_EPOCH>1550</REV_AT_EPOCH><BSTAR>.79668666E-3</BSTAR><MEAN_MOTION_DOT>.28084E-3</MEAN_MOTION_DOT><MEAN_MOTION_DDOT>0</MEAN_MOTION_DDOT></tleParameters></data></segment></body></omm>
<omm id="CCSDS_OMM_VERS" version="2.0">
<header><CREATION_DATE/><ORIGINATOR/></header><body><segment><metadata><OBJECT_NAME>KUIPER-00048</OBJECT_NAME><OBJECT_ID>2025-134J</OBJECT_ID><CENTER_NAME>EARTH</CENTER_NAME><REF_FRAME>TEME</REF_FRAME><TIME_SYSTEM>UTC</TIME_SYSTEM><MEAN_ELEMENT_THEORY>SGP4</MEAN_ELEMENT_THEORY></metadata><data><meanElements><EPOCH>2025-09-24T04:26:04.397568</EPOCH><MEAN_MOTION>15.38345738</MEAN_MOTION><ECCENTRICITY>.00061267</ECCENTRICITY><INCLINATION>51.8762</INCLINATION><RA_OF_ASC_NODE>243.0003</RA_OF_ASC_NODE><ARG_OF_PERICENTER>80.8863</ARG_OF_PERICENTER><MEAN_ANOMALY>279.2818</MEAN_ANOMALY></meanElements><tleParameters><EPHEMERIS_TYPE>0</EPHEMERIS_TYPE><CLASSIFICATION_TYPE>U</CLASSIFICATION_TYPE><NORAD_CAT_ID>64508</NORAD_CAT_ID><ELEMENT_SET_NO>999</ELEMENT_SET_NO><REV_AT_EPOCH>1550</REV_AT_EPOCH><BSTAR>.17067516E-2</BSTAR><MEAN_MOTION_DOT>.65748E-3</MEAN_MOTION_DOT><MEAN_MOTION_DDOT>0</MEAN_MOTION_DDOT></tleParameters></data></segment></body></omm>
<omm id="CCSDS_OMM_VERS" version="2.0">
<header><CREATION_DATE/><ORIGINATOR/></header><body><segment><metadata><OBJECT_NAME>KUIPER-00049</OBJECT_NAME><OBJECT_ID>2025-134K</OBJECT_ID><CENTER_NAME>EARTH</CENTER_NAME><REF_FRAME>TEME</REF_FRAME><TIME_SYSTEM>UTC</TIME_SYSTEM><MEAN_ELEMENT_THEORY>SGP4</MEAN_ELEMENT_THEORY></metadata><data><meanElements><EPOCH>2025-09-24T08:00:03.000384</EPOCH><MEAN_MOTION>15.04446628</MEAN_MOTION><ECCENTRICITY>.00068449</ECCENTRICITY><INCLINATION>51.8841</INCLINATION><RA_OF_ASC_NODE>246.1639</RA_OF_ASC_NODE><ARG_OF_PERICENTER>63.7729</ARG_OF_PERICENTER><MEAN_ANOMALY>338.1981</MEAN_ANOMALY></meanElements><tleParameters><EPHEMERIS_TYPE>0</EPHEMERIS_TYPE><CLASSIFICATION_TYPE>U</CLASSIFICATION_TYPE><NORAD_CAT_ID>64509</NORAD_CAT_ID><ELEMENT_SET_NO>999</ELEMENT_SET_NO><REV_AT_EPOCH>288</REV_AT_EPOCH><BSTAR>-.1407848E+0</BSTAR><MEAN_MOTION_DOT>-.1811462E-1</MEAN_MOTION_DOT><MEAN_MOTION_DDOT>0</MEAN_MOTION_DDOT></tleParameters></data></segment></body></omm>
<omm id="CCSDS_OMM_VERS" version="2.0">
<header><CREATION_DATE/><ORIGINATOR/></header><body><segment><metadata><OBJECT_NAME>KUIPER-00050</OBJECT_NAME><OBJECT_ID>2025-134L</OBJECT_ID><CENTER_NAME>EARTH</CENTER_NAME><REF_FRAME>TEME</REF_FRAME><TIME_SYSTEM>UTC</TIME_SYSTEM><MEAN_ELEMENT_THEORY>SGP4</MEAN_ELEMENT_THEORY></metadata><data><meanElements><EPOCH>2025-09-24T08:00:03.000384</EPOCH><MEAN_MOTION>15.02840099</MEAN_MOTION><ECCENTRICITY>.00066547</ECCENTRICITY><INCLINATION>51.8857</INCLINATION><RA_OF_ASC_NODE>247.2714</RA_OF_ASC_NODE><ARG_OF_PERICENTER>101.9675</ARG_OF_PERICENTER><MEAN_ANOMALY>115.8945</MEAN_ANOMALY></meanElements><tleParameters><EPHEMERIS_TYPE>0</EPHEMERIS_TYPE><CLASSIFICATION_TYPE>U</CLASSIFICATION_TYPE><NORAD_CAT_ID>64510</NORAD_CAT_ID><ELEMENT_SET_NO>999</ELEMENT_SET_NO><REV_AT_EPOCH>455</REV_AT_EPOCH><BSTAR>-.134166E+0</BSTAR><MEAN_MOTION_DOT>-.166631E-1</MEAN_MOTION_DOT><MEAN_MOTION_DDOT>0</MEAN_MOTION_DDOT></tleParameters></data></segment></body></omm>
<omm id="CCSDS_OMM_VERS" version="2.0">
<header><CREATION_DATE/><ORIGINATOR/></header><body><segment><metadata><OBJECT_NAME>KUIPER-00051</OBJECT_NAME><OBJECT_ID>2025-134M</OBJECT_ID><CENTER_NAME>EARTH</CENTER_NAME><REF_FRAME>TEME</REF_FRAME><TIME_SYSTEM>UTC</TIME_SYSTEM><MEAN_ELEMENT_THEORY>SGP4</MEAN_ELEMENT_THEORY></metadata><data><meanElements><EPOCH>2025-09-24T08:00:03.000384</EPOCH><MEAN_MOTION>15.13673789</MEAN_MOTION><ECCENTRICITY>.00055832</ECCENTRICITY><INCLINATION>51.8882</INCLINATION><RA_OF_ASC_NODE>245.1280</RA_OF_ASC_NODE><ARG_OF_PERICENTER>66.7844</ARG_OF_PERICENTER><MEAN_ANOMALY>49.7725</MEAN_ANOMALY></meanElements><tleParameters><EPHEMERIS_TYPE>0</EPHEMERIS_TYPE><CLASSIFICATION_TYPE>U</CLASSIFICATION_TYPE><NORAD_CAT_ID>64511</NORAD_CAT_ID><ELEMENT_SET_NO>999</ELEMENT_SET_NO><REV_AT_EPOCH>453</REV_AT_EPOCH><BSTAR>-.12538214E+0</BSTAR><MEAN_MOTION_DOT>-.2054155E-1</MEAN_MOTION_DOT><MEAN_MOTION_DDOT>0</MEAN_MOTION_DDOT></tleParameters></data></segment></body></omm>
<omm id="CCSDS_OMM_VERS" version="2.0">
<header><CREATION_DATE/><ORIGINATOR/></header><body><segment><metadata><OBJECT_NAME>KUIPER-00052</OBJECT_NAME><OBJECT_ID>2025-134N</OBJECT_ID><CENTER_NAME>EARTH</CENTER_NAME><REF_FRAME>TEME</REF_FRAME><TIME_SYSTEM>UTC</TIME_SYSTEM><MEAN_ELEMENT_THEORY>SGP4</MEAN_ELEMENT_THEORY></metadata><data><meanElements><EPOCH>2025-09-24T02:31:55.448832</EPOCH><MEAN_MOTION>15.58092836</MEAN_MOTION><ECCENTRICITY>.00075195</ECCENTRICITY><INCLINATION>51.8732</INCLINATION><RA_OF_ASC_NODE>235.8348</RA_OF_ASC_NODE><ARG_OF_PERICENTER>101.2612</ARG_OF_PERICENTER><MEAN_ANOMALY>258.9229</MEAN_ANOMALY></meanElements><tleParameters><EPHEMERIS_TYPE>0</EPHEMERIS_TYPE><CLASSIFICATION_TYPE>U</CLASSIFICATION_TYPE><NORAD_CAT_ID>64512</NORAD_CAT_ID><ELEMENT_SET_NO>999</ELEMENT_SET_NO><REV_AT_EPOCH>1559</REV_AT_EPOCH><BSTAR>.33026652E-2</BSTAR><MEAN_MOTION_DOT>.261313E-2</MEAN_MOTION_DOT><MEAN_MOTION_DDOT>0</MEAN_MOTION_DDOT></tleParameters></data></segment></body></omm>

</ndm>
